*******************************************************************************
Ephemeris / PORT_LOGIN Sun Nov 27 10:13:49 2011 Pasadena, USA    / Horizons    
*******************************************************************************
Target body name: Adrastea (515)                  {source: JUP230}
Center body name: Solar System Barycenter (0)     {source: DE405}
Center-site name: BODY CENTER
*******************************************************************************
Start time      : A.D. 2001-Jan-01 10:00:00.0000 CT 
Stop  time      : A.D. 2001-Jan-02 00:00:00.0000 CT 
Step-size       : 60 minutes
*******************************************************************************
Center geodetic : 0.00000000,0.00000000,0.0000000 {E-lon(deg),Lat(deg),Alt(km)}
Center cylindric: 0.00000000,0.00000000,0.0000000 {E-lon(deg),Dxy(km),Dz(km)}
Center radii    : (undefined)                                                  
Output units    : AU-D                                                         
Output format   : 03
Reference frame : ICRF/J2000.0                                                 
Output type     : GEOMETRIC cartesian states
Coordinate systm: Earth Mean Equator and Equinox of Reference Epoch            
*******************************************************************************
JDCT 
   X     Y     Z
   VX    VY    VZ
   LT    RG    RR
*******************************************************************************
$$SOE
2451910.916666667 = A.D. 2001-Jan-01 10:00:00.0000 (CT)
   1.788372487042437E+00  4.346559235660084E+00  1.819524063962065E+00
  -1.518611083504660E-02 -1.191049036233254E-02 -5.787548681928005E-03
   2.910856721633876E-02  5.039992178649621E+00 -1.774976143123701E-02
2451910.958333333 = A.D. 2001-Jan-01 11:00:00.0000 (CT)
   1.788060102444199E+00  4.346012216903052E+00  1.819264135773960E+00
   2.349149645435401E-04 -1.228555496235839E-02 -5.703633924188239E-03
   2.910466042548386E-02  5.039315738782073E+00 -1.257106119320995E-02
2451911.000000000 = A.D. 2001-Jan-01 12:00:00.0000 (CT)
   1.788316065628396E+00  4.345689821585556E+00  1.819121223903979E+00
   1.032472415669580E-02 -1.829549379854606E-03 -5.359031820801794E-04
   2.910328123646836E-02  5.039076939606582E+00  1.892875069445421E-03
2451911.041666667 = A.D. 2001-Jan-01 13:00:00.0000 (CT)
   1.788740804139819E+00  4.345906728372186E+00  1.819238851753649E+00
   7.807931750179768E-03  1.192116161092806E-02  5.990690626309944E-03
   2.910547748616528E-02  5.039457208453639E+00  1.521455913546223E-02
2451911.083333333 = A.D. 2001-Jan-01 14:00:00.0000 (CT)
   1.788812637734531E+00  4.346588771950546E+00  1.819572677423390E+00
  -5.517086449127356E-03  1.904295045435875E-02  9.165637620652159E-03
   2.910971781439562E-02  5.040191398527544E+00  1.777321085027172E-02
2451911.125000000 = A.D. 2001-Jan-01 15:00:00.0000 (CT)
   1.788264068878050E+00  4.347325534073310E+00  1.819922050656060E+00
  -2.003169369079376E-02  1.437334190968050E-02  6.686846352025750E-03
   2.911299179850202E-02  5.040758271303061E+00  7.703836459363595E-03
2451911.166666667 = A.D. 2001-Jan-01 16:00:00.0000 (CT)
   1.787276131631506E+00  4.347666493864157E+00  1.820074827133702E+00
  -2.523181577154341E-02  1.283123967569738E-03  3.442907636464525E-04
   2.911298511825392E-02  5.040757114653959E+00 -7.715307674662319E-03
2451911.208333333 = A.D. 2001-Jan-01 17:00:00.0000 (CT)
   1.786347720062037E+00  4.347447480322422E+00  1.819961101832224E+00
  -1.736419971663481E-02 -1.075480915234834E-02 -5.272148287396622E-03
   2.910975611555984E-02  5.040198030168554E+00 -1.733455130303069E-02
2451911.250000000 = A.D. 2001-Jan-01 18:00:00.0000 (CT)
   1.785934086980814E+00  4.346909130606719E+00  1.819703620408280E+00
  -2.131480962307823E-03 -1.305189393198264E-02 -6.109071922197103E-03
   2.910569057401442E-02  5.039494103471008E+00 -1.421943953774702E-02
2451911.291666667 = A.D. 2001-Jan-01 19:00:00.0000 (CT)
   1.786118385431660E+00  4.346522067198739E+00  1.819528637378327E+00
   9.474198031406388E-03 -3.966405239468735E-03 -1.570225769417969E-03
   2.910377466329923E-02  5.039162373813969E+00 -6.300847499562629E-04
2451911.333333333 = A.D. 2001-Jan-01 20:00:00.0000 (CT)
   1.786552668780962E+00  4.346647476995696E+00  1.819602749193305E+00
   9.087517298442409E-03  9.950946240646994E-03  5.071724855932787E-03
   2.910544306804846E-02  5.039451249141444E+00  1.363583151150990E-02
2451911.375000000 = A.D. 2001-Jan-01 21:00:00.0000 (CT)
   1.786708474965061E+00  4.347277105038881E+00  1.819912968828353E+00
  -3.027875731908042E-03  1.866127837890780E-02  9.025439785280994E-03
   2.910954551908433E-02  5.040161566519156E+00  1.828142425884352E-02
2451911.416666667 = A.D. 2001-Jan-01 22:00:00.0000 (CT)
   1.786257699272755E+00  4.348038433109445E+00  1.820275722311618E+00
  -1.813319445539333E-02  1.585730510545678E-02  7.427441128157309E-03
   2.911317199195010E-02  5.040789470831441E+00  9.934476512056350E-03
2451911.458333333 = A.D. 2001-Jan-01 23:00:00.0000 (CT)
   1.785310566071467E+00  4.348463143865892E+00  1.820469177821792E+00
  -2.529926187504371E-02  3.556483761561365E-03  1.428710253178214E-03
   2.911375349722184E-02  5.040890155348122E+00 -5.376208797510874E-03
2451911.500000000 = A.D. 2001-Jan-02 00:00:00.0000 (CT)
   1.784336468260519E+00  4.348326346942216E+00  1.820393944479749E+00
  -1.934620338220883E-02 -9.338718552746426E-03 -4.629214518142397E-03
   2.911092294239826E-02  5.040400059972899E+00 -1.657704254209913E-02
$$EOE
*******************************************************************************
Coordinate system description:

  Earth Mean Equator and Equinox of Reference Epoch

    Reference epoch: J2000.0
    xy-plane: plane of the Earth's mean equator at the reference epoch
    x-axis  : out along ascending node of instantaneous plane of the Earth's
              orbit and the Earth's mean equator at the reference epoch
    z-axis  : along the Earth mean north pole at the reference epoch

Symbol meaning [1 AU=149597870.691 km, 1 day=86400.0 s]:

    JDCT     Epoch Julian Date, Coordinate Time
      X      x-component of position vector (AU)                               
      Y      y-component of position vector (AU)                               
      Z      z-component of position vector (AU)                               
      VX     x-component of velocity vector (AU/day)                           
      VY     y-component of velocity vector (AU/day)                           
      VZ     z-component of velocity vector (AU/day)                           
      LT     One-way down-leg Newtonian light-time (day)                       
      RG     Range; distance from coordinate center (AU)                       
      RR     Range-rate; radial velocity wrt coord. center (AU/day)            

Geometric states/elements have no aberration corrections applied.

 Computations by ...
     Solar System Dynamics Group, Horizons On-Line Ephemeris System
     4800 Oak Grove Drive, Jet Propulsion Laboratory
     Pasadena, CA  91109   USA
     Information: http://ssd.jpl.nasa.gov/
     Connect    : telnet://ssd.jpl.nasa.gov:6775  (via browser)
                  telnet ssd.jpl.nasa.gov 6775    (via command-line)
     Author     : Jon.Giorgini@jpl.nasa.gov
*******************************************************************************
